STARLINK-1284           
1 45390U 20019AG  26068.54950551  .00094801  00000+0  15497-2 0  9998
2 45390  53.0484 131.6640 0003713  17.3458 342.7677 15.51780095330205
MANDRAKE 2 ABLE         
1 48907U 21059AE  26068.49150480  .00024904  00000+0  43384-3 0  9991
2 48907  97.7040 250.9760 0004784   6.4336 353.6976 15.50735817261652
