[{"OBJECT_NAME":"STARLINK-1284","OBJECT_ID":"2020-019AG","EPOCH":"2026-03-09T13:11:17.276064","MEAN_MOTION":15.51780095,"ECCENTRICITY":0.0003713,"INCLINATION":53.0484,"RA_OF_ASC_NODE":131.664,"ARG_OF_PERICENTER":17.3458,"MEAN_ANOMALY":342.7677,"EPHEMERIS_TYPE":0,"CLASSIFICATION_TYPE":"U","NORAD_CAT_ID":45390,"ELEMENT_SET_NO":999,"REV_AT_EPOCH":33020,"BSTAR":0.0015497,"MEAN_MOTION_DOT":0.00094801,"MEAN_MOTION_DDOT":0},{"OBJECT_NAME":"MANDRAKE 2 ABLE","OBJECT_ID":"2021-059AE","EPOCH":"2026-03-09T11:47:46.014720","MEAN_MOTION":15.50735817,"ECCENTRICITY":0.00047846,"INCLINATION":97.704,"RA_OF_ASC_NODE":250.976,"ARG_OF_PERICENTER":6.4336,"MEAN_ANOMALY":353.6976,"EPHEMERIS_TYPE":0,"CLASSIFICATION_TYPE":"U","NORAD_CAT_ID":48907,"ELEMENT_SET_NO":999,"REV_AT_EPOCH":26165,"BSTAR":0.00043383769,"MEAN_MOTION_DOT":0.00024904,"MEAN_MOTION_DDOT":0}]
